HAIYANG-1C              
1 43609U 18068A   26088.15251755  .00000005  00000+0  17406-4 0  9996
2 43609  98.5241 161.6013 0010287 338.0724  22.0019 14.34152449395611
SSTL S1-4               
1 43618U 18071A   26086.22900601 -.00000873  00000+0 -72762-4 0  9998
2 43618  97.5154 321.1952 0002136  91.1271 269.0196 14.96156601410682
HAIYANG-2B              
1 43655U 18081A   26088.15277417 -.00000167  00000+0 -11978-3 0  9993
2 43655  99.3334  98.1071 0001818 112.8101 247.3243 13.79308243373899
CZ-4B R/B               
1 43656U 18081B   26088.17457173  .00000163  00000+0  64993-4 0  9995
2 43656  99.3704 359.7217 0205387 137.0693 224.6726 14.31830140387851
CFOSAT                  
1 43662U 18083A   26088.18318413  .00004567  00000+0  23882-3 0  9991
2 43662  97.3632  95.0614 0001829 108.8051 251.3381 15.16341899410310
TEN-KOH                 
1 43677U 18084G   26088.02144392  .00002655  00000+0  20446-3 0  9993
2 43677  98.0763 277.0173 0010277  31.2701 328.9132 15.02556945404121
DIWATA-2B               
1 43678U 18084H   26088.20079995  .00002430  00000+0  20006-3 0  9993
2 43678  98.1040 281.0392 0013602  68.9726 291.2950 15.00056761404228
STARS-AO                
1 43679U 18084J   26088.10767558  .00007899  00000+0  41374-3 0  9997
2 43679  98.0608 297.1547 0003516  85.0835 275.0797 15.16104357405336
AUTCUBE 2               
1 43681U 18084K   26087.97144798  .00005466  00000+0  34519-3 0  9990
2 43681  98.0787 289.8895 0008246 320.7795  39.2834 15.09497776404827
METOP-C                 
1 43689U 18087A   26088.17804210  .00000138  00000+0  82705-4 0  9998
2 43689  98.6724 149.2164 0001957  73.2484 286.8908 14.21503381383468
ES'HAIL 2               
1 43700U 18090A   26088.12032014  .00000125  00000+0  00000+0 0  9995
2 43700   0.0173 118.1117 0001121 252.2190 245.3126  1.00274427 26876
MOHAMMED VI-B           
1 43717U 18095A   26088.17371772  .00001151  00000+0  17019-3 0  9992
2 43717  97.9385 161.6109 0001390  99.1942 260.9426 14.77074669396374
HYSIS                   
1 43719U 18096A   26088.15736751  .00001469  00000+0  20779-3 0  9994
2 43719  97.9908 155.5094 0001741  70.0311 290.1087 14.78604498395591
COSMOS 2530 (RODNIK-S *)
1 43751U 18097A   26088.20115299  .00000063  00000+0  38445-3 0  9993
2 43751  82.5097 271.9333 0019227 208.2251 151.7788 12.42878929332357
COSMOS 2531 (RODNIK-S *)
1 43752U 18097B   26088.14494632  .00000047  00000+0  26469-3 0  9993
2 43752  82.5144 273.0002 0016124 227.5774 132.3942 12.42910220332363
COSMOS 2532 (RODNIK-S *)
1 43753U 18097C   26088.17300682  .00000076  00000+0  47544-3 0  9997
2 43753  82.5087 271.8046 0017474 229.9128 130.0420 12.42906962332333
MINXSS-2                
1 43758U 18099A   26088.13219504  .00041022  00000+0  97020-3 0  9992
2 43758  97.4597 162.3743 0008740 187.1924 172.9199 15.41662974401779
