[{"OBJECT_NAME":"HAIYANG-1C","OBJECT_ID":"2018-068A","EPOCH":"2026-03-29T03:39:37.516320","MEAN_MOTION":14.34152449,"ECCENTRICITY":0.0010287,"INCLINATION":98.5241,"RA_OF_ASC_NODE":161.6013,"ARG_OF_PERICENTER":338.0724,"MEAN_ANOMALY":22.0019,"EPHEMERIS_TYPE":0,"CLASSIFICATION_TYPE":"U","NORAD_CAT_ID":43609,"ELEMENT_SET_NO":999,"REV_AT_EPOCH":39561,"BSTAR":1.7406e-5,"MEAN_MOTION_DOT":5.0e-8,"MEAN_MOTION_DDOT":0},{"OBJECT_NAME":"SSTL S1-4","OBJECT_ID":"2018-071A","EPOCH":"2026-03-27T05:29:46.119264","MEAN_MOTION":14.96156601,"ECCENTRICITY":0.0002136,"INCLINATION":97.5154,"RA_OF_ASC_NODE":321.1952,"ARG_OF_PERICENTER":91.1271,"MEAN_ANOMALY":269.0196,"EPHEMERIS_TYPE":0,"CLASSIFICATION_TYPE":"U","NORAD_CAT_ID":43618,"ELEMENT_SET_NO":999,"REV_AT_EPOCH":41068,"BSTAR":-7.2762e-5,"MEAN_MOTION_DOT":-8.73e-6,"MEAN_MOTION_DDOT":0},{"OBJECT_NAME":"HAIYANG-2B","OBJECT_ID":"2018-081A","EPOCH":"2026-03-29T03:39:59.688288","MEAN_MOTION":13.79308243,"ECCENTRICITY":0.0001818,"INCLINATION":99.3334,"RA_OF_ASC_NODE":98.1071,"ARG_OF_PERICENTER":112.8101,"MEAN_ANOMALY":247.3243,"EPHEMERIS_TYPE":0,"CLASSIFICATION_TYPE":"U","NORAD_CAT_ID":43655,"ELEMENT_SET_NO":999,"REV_AT_EPOCH":37389,"BSTAR":-0.00011978,"MEAN_MOTION_DOT":-1.67e-6,"MEAN_MOTION_DDOT":0},{"OBJECT_NAME":"CZ-4B R/B","OBJECT_ID":"2018-081B","EPOCH":"2026-03-29T04:11:22.997472","MEAN_MOTION":14.3183014,"ECCENTRICITY":0.0205387,"INCLINATION":99.3704,"RA_OF_ASC_NODE":359.7217,"ARG_OF_PERICENTER":137.0693,"MEAN_ANOMALY":224.6726,"EPHEMERIS_TYPE":0,"CLASSIFICATION_TYPE":"U","NORAD_CAT_ID":43656,"ELEMENT_SET_NO":999,"REV_AT_EPOCH":38785,"BSTAR":6.4993e-5,"MEAN_MOTION_DOT":1.63e-6,"MEAN_MOTION_DDOT":0},{"OBJECT_NAME":"CFOSAT","OBJECT_ID":"2018-083A","EPOCH":"2026-03-29T04:23:47.108832","MEAN_MOTION":15.16341899,"ECCENTRICITY":0.0001829,"INCLINATION":97.3632,"RA_OF_ASC_NODE":95.0614,"ARG_OF_PERICENTER":108.8051,"MEAN_ANOMALY":251.3381,"EPHEMERIS_TYPE":0,"CLASSIFICATION_TYPE":"U","NORAD_CAT_ID":43662,"ELEMENT_SET_NO":999,"REV_AT_EPOCH":41031,"BSTAR":0.00023882,"MEAN_MOTION_DOT":4.567e-5,"MEAN_MOTION_DDOT":0},{"OBJECT_NAME":"TEN-KOH","OBJECT_ID":"2018-084G","EPOCH":"2026-03-29T00:30:52.754688","MEAN_MOTION":15.02556945,"ECCENTRICITY":0.0010277,"INCLINATION":98.0763,"RA_OF_ASC_NODE":277.0173,"ARG_OF_PERICENTER":31.2701,"MEAN_ANOMALY":328.9132,"EPHEMERIS_TYPE":0,"CLASSIFICATION_TYPE":"U","NORAD_CAT_ID":43677,"ELEMENT_SET_NO":999,"REV_AT_EPOCH":40412,"BSTAR":0.00020446,"MEAN_MOTION_DOT":2.655e-5,"MEAN_MOTION_DDOT":0},{"OBJECT_NAME":"DIWATA-2B","OBJECT_ID":"2018-084H","EPOCH":"2026-03-29T04:49:09.115680","MEAN_MOTION":15.00056761,"ECCENTRICITY":0.0013602,"INCLINATION":98.104,"RA_OF_ASC_NODE":281.0392,"ARG_OF_PERICENTER":68.9726,"MEAN_ANOMALY":291.295,"EPHEMERIS_TYPE":0,"CLASSIFICATION_TYPE":"U","NORAD_CAT_ID":43678,"ELEMENT_SET_NO":999,"REV_AT_EPOCH":40422,"BSTAR":0.00020006,"MEAN_MOTION_DOT":2.43e-5,"MEAN_MOTION_DDOT":0},{"OBJECT_NAME":"STARS-AO","OBJECT_ID":"2018-084J","EPOCH":"2026-03-29T02:35:03.170112","MEAN_MOTION":15.16104357,"ECCENTRICITY":0.0003516,"INCLINATION":98.0608,"RA_OF_ASC_NODE":297.1547,"ARG_OF_PERICENTER":85.0835,"MEAN_ANOMALY":275.0797,"EPHEMERIS_TYPE":0,"CLASSIFICATION_TYPE":"U","NORAD_CAT_ID":43679,"ELEMENT_SET_NO":999,"REV_AT_EPOCH":40533,"BSTAR":0.00041374,"MEAN_MOTION_DOT":7.899e-5,"MEAN_MOTION_DDOT":0},{"OBJECT_NAME":"AUTCUBE 2","OBJECT_ID":"2018-084K","EPOCH":"2026-03-28T23:18:53.105472","MEAN_MOTION":15.09497776,"ECCENTRICITY":0.0008246,"INCLINATION":98.0787,"RA_OF_ASC_NODE":289.8895,"ARG_OF_PERICENTER":320.7795,"MEAN_ANOMALY":39.2834,"EPHEMERIS_TYPE":0,"CLASSIFICATION_TYPE":"U","NORAD_CAT_ID":43681,"ELEMENT_SET_NO":999,"REV_AT_EPOCH":40482,"BSTAR":0.00034519,"MEAN_MOTION_DOT":5.466e-5,"MEAN_MOTION_DDOT":0},{"OBJECT_NAME":"METOP-C","OBJECT_ID":"2018-087A","EPOCH":"2026-03-29T04:16:22.837440","MEAN_MOTION":14.21503381,"ECCENTRICITY":0.0001957,"INCLINATION":98.6724,"RA_OF_ASC_NODE":149.2164,"ARG_OF_PERICENTER":73.2484,"MEAN_ANOMALY":286.8908,"EPHEMERIS_TYPE":0,"CLASSIFICATION_TYPE":"U","NORAD_CAT_ID":43689,"ELEMENT_SET_NO":999,"REV_AT_EPOCH":38346,"BSTAR":8.2705e-5,"MEAN_MOTION_DOT":1.38e-6,"MEAN_MOTION_DDOT":0},{"OBJECT_NAME":"ES'HAIL 2","OBJECT_ID":"2018-090A","EPOCH":"2026-03-29T02:53:15.660096","MEAN_MOTION":1.00274427,"ECCENTRICITY":0.0001121,"INCLINATION":0.0173,"RA_OF_ASC_NODE":118.1117,"ARG_OF_PERICENTER":252.219,"MEAN_ANOMALY":245.3126,"EPHEMERIS_TYPE":0,"CLASSIFICATION_TYPE":"U","NORAD_CAT_ID":43700,"ELEMENT_SET_NO":999,"REV_AT_EPOCH":2687,"BSTAR":0,"MEAN_MOTION_DOT":1.25e-6,"MEAN_MOTION_DDOT":0},{"OBJECT_NAME":"MOHAMMED VI-B","OBJECT_ID":"2018-095A","EPOCH":"2026-03-29T04:10:09.211008","MEAN_MOTION":14.77074669,"ECCENTRICITY":0.000139,"INCLINATION":97.9385,"RA_OF_ASC_NODE":161.6109,"ARG_OF_PERICENTER":99.1942,"MEAN_ANOMALY":260.9426,"EPHEMERIS_TYPE":0,"CLASSIFICATION_TYPE":"U","NORAD_CAT_ID":43717,"ELEMENT_SET_NO":999,"REV_AT_EPOCH":39637,"BSTAR":0.00017019,"MEAN_MOTION_DOT":1.151e-5,"MEAN_MOTION_DDOT":0},{"OBJECT_NAME":"HYSIS","OBJECT_ID":"2018-096A","EPOCH":"2026-03-29T03:46:36.552864","MEAN_MOTION":14.78604498,"ECCENTRICITY":0.0001741,"INCLINATION":97.9908,"RA_OF_ASC_NODE":155.5094,"ARG_OF_PERICENTER":70.0311,"MEAN_ANOMALY":290.1087,"EPHEMERIS_TYPE":0,"CLASSIFICATION_TYPE":"U","NORAD_CAT_ID":43719,"ELEMENT_SET_NO":999,"REV_AT_EPOCH":39559,"BSTAR":0.00020779,"MEAN_MOTION_DOT":1.469e-5,"MEAN_MOTION_DDOT":0},{"OBJECT_NAME":"COSMOS 2530 (RODNIK-S 16)","OBJECT_ID":"2018-097A","EPOCH":"2026-03-29T04:49:39.618336","MEAN_MOTION":12.42878929,"ECCENTRICITY":0.0019227,"INCLINATION":82.5097,"RA_OF_ASC_NODE":271.9333,"ARG_OF_PERICENTER":208.2251,"MEAN_ANOMALY":151.7788,"EPHEMERIS_TYPE":0,"CLASSIFICATION_TYPE":"U","NORAD_CAT_ID":43751,"ELEMENT_SET_NO":999,"REV_AT_EPOCH":33235,"BSTAR":0.00038445,"MEAN_MOTION_DOT":6.3e-7,"MEAN_MOTION_DDOT":0},{"OBJECT_NAME":"COSMOS 2531 (RODNIK-S 17)","OBJECT_ID":"2018-097B","EPOCH":"2026-03-29T03:28:43.362048","MEAN_MOTION":12.4291022,"ECCENTRICITY":0.0016124,"INCLINATION":82.5144,"RA_OF_ASC_NODE":273.0002,"ARG_OF_PERICENTER":227.5774,"MEAN_ANOMALY":132.3942,"EPHEMERIS_TYPE":0,"CLASSIFICATION_TYPE":"U","NORAD_CAT_ID":43752,"ELEMENT_SET_NO":999,"REV_AT_EPOCH":33236,"BSTAR":0.00026469,"MEAN_MOTION_DOT":4.7e-7,"MEAN_MOTION_DDOT":0},{"OBJECT_NAME":"COSMOS 2532 (RODNIK-S 18)","OBJECT_ID":"2018-097C","EPOCH":"2026-03-29T04:09:07.789248","MEAN_MOTION":12.42906962,"ECCENTRICITY":0.0017474,"INCLINATION":82.5087,"RA_OF_ASC_NODE":271.8046,"ARG_OF_PERICENTER":229.9128,"MEAN_ANOMALY":130.042,"EPHEMERIS_TYPE":0,"CLASSIFICATION_TYPE":"U","NORAD_CAT_ID":43753,"ELEMENT_SET_NO":999,"REV_AT_EPOCH":33233,"BSTAR":0.00047544,"MEAN_MOTION_DOT":7.6e-7,"MEAN_MOTION_DDOT":0},{"OBJECT_NAME":"MINXSS-2","OBJECT_ID":"2018-099A","EPOCH":"2026-03-29T03:10:21.651456","MEAN_MOTION":15.41662974,"ECCENTRICITY":0.000874,"INCLINATION":97.4597,"RA_OF_ASC_NODE":162.3743,"ARG_OF_PERICENTER":187.1924,"MEAN_ANOMALY":172.9199,"EPHEMERIS_TYPE":0,"CLASSIFICATION_TYPE":"U","NORAD_CAT_ID":43758,"ELEMENT_SET_NO":999,"REV_AT_EPOCH":40177,"BSTAR":0.0009702,"MEAN_MOTION_DOT":0.00041022,"MEAN_MOTION_DDOT":0}]
